ONEWEB-0597             
1 54663U 22166X   26177.90110067 -.00000015  00000+0 -68556-4 0  9999
2 54663  87.9247 242.0547 0002013  94.7841 265.3523 13.21826363172827
ONEWEB-0600             
1 54664U 22166Y   26177.88260329 -.00000022  00000+0 -85332-4 0  9993
2 54664  87.9247 242.0497 0001826  98.4454 261.6887 13.21824312172794
ONEWEB-0601             
1 54665U 22166Z   26177.87421152  .00025273  00000+0  61104-1 0  9997
2 54665  87.9248 242.0677 0003897  76.3205 283.8362 13.21698925172989
ONEWEB-0602             
1 54666U 22166AA  26177.91539403 -.00000037  00000+0 -12164-3 0  9999
2 54666  87.9245 242.0652 0001772  98.8458 261.2876 13.21826969172834
ONEWEB-0603             
1 54667U 22166AB  26177.92128930 -.00000010  00000+0 -55206-4 0  9996
2 54667  87.9255 242.0219 0001981  96.0099 264.1260 13.21826283172768
ONEWEB-0604             
1 54668U 22166AC  26177.90949157  .00000023  00000+0  24715-4 0  9990
2 54668  87.9256 242.0400 0002071 100.4385 259.6982 13.21827963172723
ONEWEB-0605             
1 54669U 22166AD  26177.90278595  .00000065  00000+0  12689-3 0  9994
2 54669  87.9247 242.0540 0002380  83.8355 276.3050 13.21826929172793
ONEWEB-0606             
1 54670U 22166AE  26177.92462595  .00002394  00000+0  57632-2 0  9996
2 54670  87.9244 242.0615 0002229 101.6915 258.4469 13.21843219172851
ONEWEB-0607             
1 54671U 22166AF  26177.89101359  .00000046  00000+0  78771-4 0  9992
2 54671  87.9253 242.0403 0001939  95.4601 264.6755 13.21825023172823
ONEWEB-0608             
1 54672U 22166AG  26177.89771222  .00000080  00000+0  16203-3 0  9994
2 54672  87.9258 242.0362 0002071  83.4396 276.6974 13.21827936172831
ONEWEB-0610             
1 54673U 22166AH  26177.87755594 -.00000008  00000+0 -51343-4 0  9994
2 54673  87.9246 242.0534 0001812  80.7518 279.3821 13.21824762172732
ONEWEB-0611             
1 54674U 22166AJ  26177.87080787  .00000009  00000+0 -10269-4 0  9992
2 54674  87.9248 242.0506 0002135 101.2421 258.8953 13.21825457172724
ONEWEB-0612             
1 54675U 22166AK  26177.88428762  .00000058  00000+0  10889-3 0  9993
2 54675  87.9259 242.0445 0002033  93.5654 266.5712 13.21825620172717
ONEWEB-0615             
1 54676U 22166AL  26177.93979141 -.00000018  00000+0 -75161-4 0  9995
2 54676  87.9250 242.0472 0002039 105.6044 254.5315 13.21826960172739
ONEWEB-0655             
1 54677U 22166AM  26177.91623900 -.00000003  00000+0 -38000-4 0  9998
2 54677  87.9248 242.0529 0001789  97.6387 262.4950 13.21827230172724
ONEWEB-0659             
1 54678U 22166AN  26177.93308581 -.00000087  00000+0 -24111-3 0  9995
2 54678  87.9247 242.0493 0002150  98.3328 261.8050 13.21852359172814
ONEWEB-0685             
1 54679U 22166AP  26177.93299194 -.00000005  00000+0 -44631-4 0  9995
2 54679  87.9244 242.0412 0001907  87.9674 272.1678 13.21847964172705
ONEWEB-0712             
1 54680U 22166AQ  26177.86362725 -.00000063  00000+0 -19826-3 0  9991
2 54680  87.9091 226.8532 0001615  99.1294 261.0020 13.16594466173337
ONEWEB-0714             
1 54681U 22166AR  26177.93811098 -.00000032  00000+0 -10785-3 0  9993
2 54681  87.9247 242.0380 0001802 102.8202 257.3133 13.21824737172820
ONEWEB-0532             
1 55140U 23004A   26177.90419539  .00000069  00000+0  14507-3 0  9991
2 55140  87.9131   3.9310 0002198  85.6774 274.4608 13.17647690168863
ONEWEB-0533             
1 55141U 23004B   26177.91080763  .00000187  00000+0  48487-3 0  9991
2 55141  87.8947 348.7363 0001729  86.6298 273.5028 13.12445351169331
ONEWEB-0541             
1 55142U 23004C   26177.94828454  .00000223  00000+0  59244-3 0  9996
2 55142  87.8891  19.1154 0001983  90.8808 269.2547 13.11414714167225
ONEWEB-0543             
1 55143U 23004D   26177.95194454 -.00000014  00000+0 -67685-4 0  9993
2 55143  87.9167 333.5261 0001631  98.4946 261.6371 13.18685596170985
ONEWEB-0544             
1 55144U 23004E   26177.94519870  .00000012  00000+0 -11999-5 0  9991
2 55144  87.9167 333.5271 0001833 101.6452 258.4886 13.18686057170988
ONEWEB-0560             
1 55145U 23004F   26177.93844479 -.00000066  00000+0 -19967-3 0  9998
2 55145  87.9168 333.5179 0001779 103.7609 256.3721 13.18686849170998
ONEWEB-0565             
1 55146U 23004G   26177.93171457  .00000088  00000+0  19079-3 0  9994
2 55146  87.9158 333.5464 0002198 101.5586 258.5793 13.18685792170989
ONEWEB-0567             
1 55147U 23004H   26177.92496969  .00000049  00000+0  90293-4 0  9997
2 55147  87.9167 333.5327 0002069 103.5377 256.5986 13.18686193170983
ONEWEB-0569             
1 55148U 23004J   26177.91121435  .00000221  00000+0  56912-3 0  9991
2 55148  87.8970 318.2841 0002078 123.9298 236.2029 13.13470059171457
ONEWEB-0570             
1 55149U 23004K   26177.91653242  .00000032  00000+0  47144-4 0  9996
2 55149  87.9166 333.5321 0002248  91.1493 268.9897 13.18685739170970
ONEWEB-0571             
1 55150U 23004L   26177.90978734  .00000022  00000+0  23518-4 0  9991
2 55150  87.9167 333.5329 0002722 118.6209 241.5197 13.18685006170986
