OBJECT_NAME,OBJECT_ID,EPOCH,MEAN_MOTION,ECCENTRICITY,INCLINATION,RA_OF_ASC_NODE,ARG_OF_PERICENTER,MEAN_ANOMALY,EPHEMERIS_TYPE,CLASSIFICATION_TYPE,NORAD_CAT_ID,ELEMENT_SET_NO,REV_AT_EPOCH,BSTAR,MEAN_MOTION_DOT,MEAN_MOTION_DDOT
ONEWEB-0597,2022-166X,2026-06-26T21:37:35.097888,13.21826363,.00020139,87.9247,242.0547,94.7841,265.3523,0,U,54663,999,17282,-.68555619E-4,-.15E-6,0
ONEWEB-0600,2022-166Y,2026-06-26T21:10:56.924256,13.21824312,.00018269,87.9247,242.0497,98.4454,261.6887,0,U,54664,999,17279,-.85332361E-4,-.22E-6,0
ONEWEB-0601,2022-166Z,2026-06-26T20:58:51.875328,13.21698925,.00038975,87.9248,242.0677,76.3205,283.8362,0,U,54665,999,17298,.61104101E-1,.25273E-3,0
ONEWEB-0602,2022-166AA,2026-06-26T21:58:10.044192,13.21826969,.00017725,87.9245,242.0652,98.8458,261.2876,0,U,54666,999,17283,-.12164304E-3,-.37E-6,0
ONEWEB-0603,2022-166AB,2026-06-26T22:06:39.395520,13.21826283,.00019814,87.9255,242.0219,96.0099,264.1260,0,U,54667,999,17276,-.55205524E-4,-.1E-6,0
ONEWEB-0604,2022-166AC,2026-06-26T21:49:40.071648,13.21827963,.00020713,87.9256,242.0400,100.4385,259.6982,0,U,54668,999,17272,.24715176E-4,.23E-6,0
ONEWEB-0605,2022-166AD,2026-06-26T21:40:00.706080,13.21826929,.00023804,87.9247,242.0540,83.8355,276.3050,0,U,54669,999,17279,.12688609E-3,.65E-6,0
ONEWEB-0606,2022-166AE,2026-06-26T22:11:27.682080,13.21843219,.00022296,87.9244,242.0615,101.6915,258.4469,0,U,54670,999,17285,.57632335E-2,.2394E-4,0
ONEWEB-0607,2022-166AF,2026-06-26T21:23:03.574176,13.21825023,.00019395,87.9253,242.0403,95.4601,264.6755,0,U,54671,999,17282,.78770743E-4,.46E-6,0
ONEWEB-0608,2022-166AG,2026-06-26T21:32:42.335808,13.21827936,.00020718,87.9258,242.0362,83.4396,276.6974,0,U,54672,999,17283,.16203111E-3,.8E-6,0
ONEWEB-0610,2022-166AH,2026-06-26T21:03:40.833216,13.21824762,.0001812,87.9246,242.0534,80.7518,279.3821,0,U,54673,999,17273,-.5134315E-4,-.8E-7,0
ONEWEB-0611,2022-166AJ,2026-06-26T20:53:57.799968,13.21825457,.00021355,87.9248,242.0506,101.2421,258.8953,0,U,54674,999,17272,-.10269467E-4,.9E-7,0
ONEWEB-0612,2022-166AK,2026-06-26T21:13:22.450368,13.21825620,.00020338,87.9259,242.0445,93.5654,266.5712,0,U,54675,999,17271,.10889187E-3,.58E-6,0
ONEWEB-0615,2022-166AL,2026-06-26T22:33:17.977824,13.21826960,.00020393,87.9250,242.0472,105.6044,254.5315,0,U,54676,999,17273,-.7516106E-4,-.18E-6,0
ONEWEB-0655,2022-166AM,2026-06-26T21:59:23.049600,13.21827230,.00017898,87.9248,242.0529,97.6387,262.4950,0,U,54677,999,17272,-.3800042E-4,-.3E-7,0
ONEWEB-0659,2022-166AN,2026-06-26T22:23:38.613984,13.21852359,.00021506,87.9247,242.0493,98.3328,261.8050,0,U,54678,999,17281,-.24110847E-3,-.87E-6,0
ONEWEB-0685,2022-166AP,2026-06-26T22:23:30.503616,13.21847964,.00019074,87.9244,242.0412,87.9674,272.1678,0,U,54679,999,17270,-.44631065E-4,-.5E-7,0
ONEWEB-0712,2022-166AQ,2026-06-26T20:43:37.394400,13.16594466,.00016157,87.9091,226.8532,99.1294,261.0020,0,U,54680,999,17333,-.19825643E-3,-.63E-6,0
ONEWEB-0714,2022-166AR,2026-06-26T22:30:52.788672,13.21824737,.00018027,87.9247,242.0380,102.8202,257.3133,0,U,54681,999,17282,-.10785386E-3,-.32E-6,0
ONEWEB-0532,2023-004A,2026-06-26T21:42:02.481696,13.17647690,.00021987,87.9131,3.9310,85.6774,274.4608,0,U,55140,999,16886,.14507049E-3,.69E-6,0
ONEWEB-0533,2023-004B,2026-06-26T21:51:33.779232,13.12445351,.00017298,87.8947,348.7363,86.6298,273.5028,0,U,55141,999,16933,.48487338E-3,.187E-5,0
ONEWEB-0541,2023-004C,2026-06-26T22:45:31.784256,13.11414714,.00019839,87.8891,19.1154,90.8808,269.2547,0,U,55142,999,16722,.59244017E-3,.223E-5,0
ONEWEB-0543,2023-004D,2026-06-26T22:50:48.008256,13.18685596,.00016312,87.9167,333.5261,98.4946,261.6371,0,U,55143,999,17098,-.67685122E-4,-.14E-6,0
ONEWEB-0544,2023-004E,2026-06-26T22:41:05.167680,13.18686057,.00018335,87.9167,333.5271,101.6452,258.4886,0,U,55144,999,17098,-.119994E-5,.12E-6,0
ONEWEB-0560,2023-004F,2026-06-26T22:31:21.629856,13.18686849,.0001779,87.9168,333.5179,103.7609,256.3721,0,U,55145,999,17099,-.19966871E-3,-.66E-6,0
ONEWEB-0565,2023-004G,2026-06-26T22:21:40.138848,13.18685792,.00021984,87.9158,333.5464,101.5586,258.5793,0,U,55146,999,17098,.19078611E-3,.88E-6,0
ONEWEB-0567,2023-004H,2026-06-26T22:11:57.381216,13.18686193,.0002069,87.9167,333.5327,103.5377,256.5986,0,U,55147,999,17098,.90293351E-4,.49E-6,0
ONEWEB-0569,2023-004J,2026-06-26T21:52:08.919840,13.13470059,.00020782,87.8970,318.2841,123.9298,236.2029,0,U,55148,999,17145,.56911875E-3,.221E-5,0
ONEWEB-0570,2023-004K,2026-06-26T21:59:48.401088,13.18685739,.00022483,87.9166,333.5321,91.1493,268.9897,0,U,55149,999,17097,.47144475E-4,.32E-6,0
ONEWEB-0571,2023-004L,2026-06-26T21:50:05.626176,13.18685006,.00027225,87.9167,333.5329,118.6209,241.5197,0,U,55150,999,17098,.23517841E-4,.22E-6,0
